TDRS 13                 
1 42915U 17047A   26183.72292596 -.00000089  00000+0  00000+0 0  9998
2 42915   3.4552   3.0989 0015143 108.9449  57.5559  1.00272517 32501
QZS-3 (MICHIBIKI-3)     
1 42917U 17048A   26183.83015211 -.00000337  00000+0  00000+0 0  9996
2 42917   0.0766 134.3955 0002228 325.6392 246.7034  1.00268778 32413
AMAZONAS 5              
1 42934U 17053A   26183.21406852 -.00000272  00000+0  00000+0 0  9996
2 42934   0.0325 325.1790 0001664 101.7064 229.4374  1.00272699 32199
ASIASAT 9               
1 42942U 17057A   26183.89190510  .00000000  00000+0  00000+0 0  9992
2 42942   0.0453  63.2871 0002299  35.9112 264.9806  1.00263817 32014
INTELSAT 37E (IS-37E)   
1 42950U 17059A   26183.79291625 -.00000130  00000+0  00000+0 0  9996
2 42950   0.0182  34.0408 0002837  68.0515  86.1828  1.00272973 32220
BSAT-4A                 
1 42951U 17059B   26183.88231600 -.00000339  00000+0  00000+0 0  9995
2 42951   0.0364 339.7052 0003938  98.8918 269.7892  1.00271466 31959
QZS-4 (MICHIBIKI-4)     
1 42965U 17062A   26183.76741337 -.00000316  00000+0  00000+0 0  9999
2 42965  40.1001 343.2884 0746818 268.3349  83.7779  1.00294869 31964
SES-11 (ECHOSTAR 105)   
1 42967U 17063A   26183.70436984 -.00000079  00000+0  00000+0 0  9991
2 42967   0.0197 332.7960 0002934 127.7280 328.8454  1.00271625 31879
KOREASAT 5A             
1 42984U 17067A   26183.82252730 -.00000347  00000+0  00000+0 0  9990
2 42984   0.0246 300.5354 0000902 152.9445 236.6216  1.00269280 31684
ALCOMSAT 1              
1 43039U 17078A   26183.72023928 -.00000176  00000+0  00000+0 0  9998
2 43039   0.0152  62.6702 0002552  34.5312  58.0257  1.00270572 31458
SBIRS GEO-3 (USA 282)   
1 43162U 18009A   26183.76484259  .00000138  00000+0  00000+0 0  9999
2 43162   2.1946  12.8052 0002218  84.5660 299.3770  1.00272730 31003
AL YAH 3                
1 43174U 18012A   26183.79248293 -.00000146  00000+0  00000+0 0  9995
2 43174   1.5898  82.9359 0004069  16.5355  86.5332  1.00271178 31000
SES-14                  
1 43175U 18012B   26183.78702291 -.00000268  00000+0  00000+0 0  9993
2 43175   0.0127  27.7702 0001294  73.8319  55.0474  1.00270755  7182
GOES 17                 
1 43226U 18022A   26183.63617994 -.00000172  00000+0  00000+0 0  9994
2 43226   0.9741  85.4682 0000734  41.6240 293.1097  1.00271770 30575
HISPASAT 30W-6          
1 43228U 18023A   26183.64796667 -.00000205  00000+0  00000+0 0  9990
2 43228   0.0424  45.4228 0005797  35.4158  43.1160  1.00271750 30562
SUPERBIRD-B3            
1 43271U 18033A   26183.75721589 -.00000081  00000+0  00000+0 0  9994
2 43271   0.0160  15.2519 0001193  88.0014 252.1498  1.00272254 30214
HYLAS 4                 
1 43272U 18033B   26183.78979625  .00000000  00000+0  00000+0 0  9994
2 43272   0.0202  24.2276 0000974 121.2451  26.1743  1.00268685 30229
IRNSS-1I                
1 43286U 18035A   26179.79558490  .00000066  00000+0  00000+0 0  9992
2 43286  28.7805  74.0157 0017671 182.6115   1.5908  1.00277388 30197
USA 283                 
1 43339U 18036A   26182.46854735  .00000000  00000+0  00000+0 0  9999
2 43339   0.0077  35.3198 0000064   9.2412 177.7500  1.00269042 25430
COSMOS 2526             
1 43432U 18037A   26183.89723498 -.00000334  00000+0  00000+0 0  9994
2 43432   0.0344  77.9657 0000659 200.1132  93.8891  1.00268513 30118
APSTAR-6C               
1 43450U 18041A   26183.89900381 -.00000307  00000+0  00000+0 0  9997
2 43450   0.0397 309.4367 0000233  81.3830 347.7401  1.00269634 29963
BANGABANDHUSAT-1        
1 43463U 18044A   26183.82464303 -.00000352  00000+0  00000+0 0  9996
2 43463   0.0275  90.5346 0002025  11.4345 234.8607  1.00273397 29867
SES-12                  
1 43488U 18049A   26183.88041772 -.00000260  00000+0  00000+0 0  9993
2 43488   0.0116   2.5528 0000158 224.3201 105.9984  1.00278711 29573
FENGYUN 2H              
1 43491U 18050A   26183.91792100 -.00000119  00000+0  00000+0 0  9994
2 43491   3.0700  78.8964 0001783 121.4669 130.3322  1.00269448 29596
BEIDOU-2 IGSO-7         
1 43539U 18057A   26182.89122331 -.00000033  00000+0  00000+0 0  9998
2 43539  55.1981 162.9292 0104946 237.8611 308.6338  1.00246939 29273
TELSTAR 19V             
1 43562U 18059A   26183.28491894 -.00000269  00000+0  00000+0 0  9994
2 43562   0.0294 140.3912 0003108 341.2792 198.2196  1.00270343 29295
TELKOM 4 (MERAH PUTIH)  
1 43587U 18064A   26183.84034248  .00000000  00000+0  00000+0 0  9997
2 43587   0.0154  18.9563 0001614 108.4972 203.9469  1.00269769 29031
TELSTAR 18V             
1 43611U 18069A   26183.82380461 -.00000283  00000+0  00000+0 0  9993
2 43611   0.0237 291.1832 0002133 169.3427 254.9036  1.00271847 28791
AZERSPACE 2 (IS-38)     
1 43632U 18074A   26183.80536772  .00000000  00000+0  00000+0 0  9994
2 43632   0.0228  36.6472 0001885  74.6484 144.5913  1.00276723 28606
HORIZONS-3E             
1 43633U 18074B   26183.68738308 -.00000020  00000+0  00000+0 0  9993
2 43633   0.0166 197.9110 0000602  85.7941  53.4880  1.00271230 28491
AEHF-4 (USA 288)        
1 43651U 18079A   26183.56933301 -.00000264  00000+0  00000+0 0  9995
2 43651   1.4366   5.2231 0059791 355.5325  57.2212  1.00267837 28455
BEIDOU-3 G1             
1 43683U 18085A   26183.82813796 -.00000100  00000+0  00000+0 0  9990
2 43683   2.9063  96.9616 0008560 353.3687 288.5756  1.00271019 28212
